# Made by eph2tle, compiled Dec 13 2025 12:53:27
# Run at Thu Dec 18 15:17:39 2025 UTC
#
#    The following TLEs (Two-Line Elements) were generated by fitting
# a numerically-integrated ephemeris,  based on the orbit given below,
# to the SDP4/SGP4 models.  Each TLE is good for the interval between
# its epoch and the epoch of the subsequent TLE (usually one day).
# The maximum deviation between the numerically integrated ephemerides
# and the TLE-based ephemeris, in kilometers,  is given for each TLE
# as the "worst residual".
#
#    This fitting is done using the 'eph2tle' code packaged with Find_Orb.
# The code has details on how the TLEs were computed :
#
#    https://github.com/Bill-Gray/find_orb/eph2tle.cpp
#
#    Be warned:  the error given is that between the numerically
# integrated ephems and the TLE model.  There will usually be at
# least some additional difference between the ephems and the actual
# motion of the satellite,  especially if the ephemerides are based
# on a short arc.  If the following orbital elements say something
# like "[based on] 10 observations 2015 Jan. 1-13",  and the TLEs
# are for 2015 May,  the extrapolation may be tenuous at best.  If
# your application requires a specific level of accuracy,  you may
# want to contact me;  I can give you some idea as to the fit of the
# underlying data (and possibly TLEs based on newer data).
#
#   You can usually find the underlying observational data,  and the
# fitted orbit,  residuals,  ephemerides,  and sometimes some comments
# about the object,  among the pages listed at
#
#    https://www.projectpluto.com/pluto/mpecs/pseudo.htm
#
#    WARNING:  for this object,  "normal" TLEs cannot be fitted.  (This
# usually means an object with an hyperbolic or nearly-parabolic orbit.)
# For this and similar cases,   an alternative model is used,  in which
# most of the traditional TLE data is replaced by six signed 8-digit hex
# numbers.  These six numbers are a state vector,  numerically integrated
# using a simplified force model.  This is necessary for objects at L2 or
# L1,  and sometimes for objects in high orbits where the SDP4/SGP4 model
# fails.  Some documentation is in 'get_el.cpp' in the source code at
# https://www.github.com/Bill-Gray/sat_code ; look for 'hex' in that file,
# with the actual integration done in 'sdp4.cpp'.  But be aware:  it's my
# own extension,  doesn't work with other code,  and is therefore used
# only when necessary.
#
#    Also,  if you use a TLE outside the "correct" time range (between
# its MJD and that of the next TLE),  all bets are off.  I've carefully
# computed and minimized the worst error over the "correct" time frame,
# but the ephemeris may (or may not) diverge wildly outside of it.
#
# Ephem range: 61041.000000 61222.000000 1.000000
# Created Thu Dec 18 10:17:35 2025
# Ephemeris start:  1 Jan 2026  0:00:00
# Ephemeris end:    1 Jul 2026  0:00:00
# Times are all TDT
# Positions/velocities are in equatorial J2000
# Orbital elements:  2024-048D = NORAD 60058 = DRO-B
#    Perigee 2025 Dec 5.73343 +/- 1.6477e-5 TT = 17:36:08 (JD 2461015.23343)
# Epoch 2025 Dec  9.0 TT = JDT 2461018.5                           Gray
# M  38.06970986 +/- 0.0001970        (J2000 equator)
# n  11.65433086 +/- 4.6789e-5        Peri.   61.73192 +/- 0.0003980
# a415858.207 +/- 1.113               Node   359.49512 +/- 5.342e-5
# e   0.4107774 +/- 2.1766e-6         Incl.   29.41372 +/- 2.6054e-5
# P  30.8892d                H 28.16  G  0.15   U  6.0
# q 245033.037 +/- 0.34342    Q 586683.377 +/- 2.4482
# 46 of 125 observations 2025 Nov. 29-Dec. 9; mean residual 0".393/0.81 sigmas
#
# 1 NoradU COSPAR   Epoch.epoch     dn/dt/2  d2n/dt2/6 BSTAR    T El# C
# 2 NoradU Inclina RAAscNode Eccent  ArgPeri MeanAno  MeanMotion Rev# C

# Worst residual: 332.63 km
# MJD 61041.000000 (2026 Jan  1  0:00)
2024-048D = NORAD 60058 = DRO-B
1 60058U 24048D   25365.99919926 +001L5S6F +004SE72B +002J23DFH 29095
2 60058                          -0006A814 +0003Z8MJ +00022ZY5     01

# Worst residual: 171.81 km
# MJD 61042.000000 (2026 Jan  2  0:00)
2024-048D = NORAD 60058 = DRO-B
1 60058U 24048D   26001.99919926 +00068LI8 +005JW08K +002Y1R1MH 29090
2 60058                          -0005GC7J +0002C3VE +0001CF3S     03

# Worst residual: 51.56 km
# MJD 61043.000000 (2026 Jan  3  0:00)
2024-048D = NORAD 60058 = DRO-B
1 60058U 24048D   26002.99919926 -00115KYT +005W3C9T +0035MD9PH 29094
2 60058                          -0004NANP +0000GUZM +0000DKL8     04

# Worst residual: 11.92 km
# MJD 61044.000000 (2026 Jan  4  0:00)
2024-048D = NORAD 60058 = DRO-B
1 60058U 24048D   26003.99919926 -0023CKQK +005SBYPU +0034H96TH 29096
2 60058                          -00048ZLU -0001A7R9 -0000MB0Q     03

# Worst residual: 14.49 km
# MJD 61045.000000 (2026 Jan  5  0:00)
2024-048D = NORAD 60058 = DRO-B
1 60058U 24048D   26004.99919926 -0032UBJ1 +005AWP6L +002VFC9LH 29093
2 60058                          -0003Y505 -0002PB61 -0001G662     01

# Worst residual: 22.21 km
# MJD 61046.000000 (2026 Jan  6  0:00)
2024-048D = NORAD 60058 = DRO-B
1 60058U 24048D   26005.99919926 -003YZCKS +004I6U59 +002FS33LH 29091
2 60058                          -0003G2Y2 -0003X6JU -00025P1F     08

# Worst residual: 29.32 km
# MJD 61047.000000 (2026 Jan  7  0:00)
2024-048D = NORAD 60058 = DRO-B
1 60058U 24048D   26006.99919926 -004PIT13 +003FH83C +001UC8ODH 29098
2 60058                          -0002N2RY -00050OXQ -0002SJLK     05

# Worst residual: 38.53 km
# MJD 61048.000000 (2026 Jan  8  0:00)
2024-048D = NORAD 60058 = DRO-B
1 60058U 24048D   26007.99919926 -0057LVT2 +0023WP8V +0013RXNOH 29099
2 60058                          -0001HJ5Z -0005YF7T -0003C3K5     03

# Worst residual: 55.47 km
# MJD 61049.000000 (2026 Jan  9  0:00)
2024-048D = NORAD 60058 = DRO-B
1 60058U 24048D   26008.99919926 -005EC9G9 +000LGMBX +00096WLXH 29097
2 60058                          -000019WH -0006KOE2 -0003PBKA     05

# Worst residual: 51.29 km
# MJD 61050.000000 (2026 Jan 10  0:00)
2024-048D = NORAD 60058 = DRO-B
1 60058U 24048D   26009.99919926 -00580GB8 -00101F03 -000NAA7BH 29095
2 60058                          +0001HIZ4 -0006MCPD -0003QXM5     02

# Worst residual: 11.52 km
# MJD 61051.000000 (2026 Jan 11  0:00)
2024-048D = NORAD 60058 = DRO-B
1 60058U 24048D   26010.99919926 -004P7J4N -002IYRN4 -001IEG12H 29099
2 60058                          +0002TGWN -0005ZUY7 -0003E8JG     08

# Worst residual: 11.11 km
# MJD 61052.000000 (2026 Jan 12  0:00)
2024-048D = NORAD 60058 = DRO-B
1 60058U 24048D   26011.99919926 -003WB0ON -003UHM37 -00298XVUH 29090
2 60058                          +0003T1Y1 -0004YRWL -0002SMQZ     04

# Worst residual: 13.81 km
# MJD 61053.000000 (2026 Jan 13  0:00)
2024-048D = NORAD 60058 = DRO-B
1 60058U 24048D   26012.99919926 -002WJRGH -004WGK81 -002UI9QSH 29092
2 60058                          +0004EOX6 -0003TI7P -00024FIZ     09

# Worst residual: 13.41 km
# MJD 61054.000000 (2026 Jan 14  0:00)
2024-048D = NORAD 60058 = DRO-B
1 60058U 24048D   26013.99919926 -001T3OKT -005OK1XJ -0039YTJAH 29099
2 60058                          +0004O89Z -0002OXI3 -0001GK09     09

# Worst residual: 13.39 km
# MJD 61055.000000 (2026 Jan 15  0:00)
2024-048D = NORAD 60058 = DRO-B
1 60058U 24048D   26014.99919926 -000OKJOC -0067590K -003JTC9CH 29097
2 60058                          +0004O2R9 -0001MA4G -0000TNCU     03

# Worst residual: 20.30 km
# MJD 61056.000000 (2026 Jan 16  0:00)
2024-048D = NORAD 60058 = DRO-B
1 60058U 24048D   26015.99919926 +000EX6Y6 -006GMJAS -003O82WSH 29099
2 60058                          +0004FQ6R -0000KQSH -000070P7     07

# Worst residual: 49.80 km
# MJD 61057.000000 (2026 Jan 17  0:00)
2024-048D = NORAD 60058 = DRO-B
1 60058U 24048D   26016.99919926 +001FHOXK -006GYXR0 -003N1ETQH 29090
2 60058                          +0003ZTKS +0000IKLJ +0000HIEF     04

# Worst residual: 158.41 km
# MJD 61058.000000 (2026 Jan 18  0:00)
2024-048D = NORAD 60058 = DRO-B
1 60058U 24048D   26017.99919926 +002BJE7Y -00672GNF -003FB49KH 29090
2 60058                          +0003F2OR +0001U0CB +0001CFQS     08

# Worst residual: 204.87 km
# MJD 61059.000000 (2026 Jan 19  0:00)
2024-048D = NORAD 60058 = DRO-B
1 60058U 24048D   26018.99919926 +00336U0E -005K4G0M -002Z0UNFH 29094
2 60058                          +00032AAC +0003J90P +0002GAZK     00

# Worst residual: 222.10 km
# MJD 61060.000000 (2026 Jan 20  0:00)
2024-048D = NORAD 60058 = DRO-B
1 60058U 24048D   26019.99919926 +003U6MX3 -004HR5Z4 -00294HQ5H 29097
2 60058                          +00039MP5 +0005AZ2G +0003HFEU     08

# Worst residual: 196.36 km
# MJD 61061.000000 (2026 Jan 21  0:00)
2024-048D = NORAD 60058 = DRO-B
1 60058U 24048D   26020.99919926 +004NWJ3A -0032ADFL -001CKL40H 29091
2 60058                          +0003IUA4 +0006G0FG +0003X5A8     00

# Worst residual: 76.15 km
# MJD 61062.000000 (2026 Jan 22  0:00)
2024-048D = NORAD 60058 = DRO-B
1 60058U 24048D   26021.99919926 +005FYZ77 -001H60C4 -000F75H5H 29092
2 60058                          +0002S8QW +0006NSYU +0003QWS9     09

# Worst residual: 28.93 km
# MJD 61063.000000 (2026 Jan 23  0:00)
2024-048D = NORAD 60058 = DRO-B
1 60058U 24048D   26022.99919926 +005Y4B0E +0003GHPS +000FP1TZH 29097
2 60058                          +0001DRT0 +0006DXTJ +0003DWWM     01

# Worst residual: 20.55 km
# MJD 61064.000000 (2026 Jan 24  0:00)
2024-048D = NORAD 60058 = DRO-B
1 60058U 24048D   26023.99919926 +0063ZOC3 +001KCLCX +001729LMH 29097
2 60058                          +000007FI +0005TD09 +0002XP1A     05

# Worst residual: 16.30 km
# MJD 61065.000000 (2026 Jan 25  0:00)
2024-048D = NORAD 60058 = DRO-B
1 60058U 24048D   26024.99919926 +005YSPH0 +002VDNDT +001U97DDH 29090
2 60058                          -00016CG5 +00051KWD +0002FAIR     02

# Worst residual: 17.24 km
# MJD 61066.000000 (2026 Jan 26  0:00)
2024-048D = NORAD 60058 = DRO-B
1 60058U 24048D   26025.99919926 +005K3GLI +003Z4QNZ +002CV2P0H 29096
2 60058                          -00027JNV +000453E8 +0001VNGU     02

